CCSDS_OMM_VERS = 2.0
CREATION_DATE  = 
ORIGINATOR     = 

OBJECT_NAME    = INTERCOSMOS 25
OBJECT_ID      = 1991-086A
CENTER_NAME    = EARTH
REF_FRAME      = TEME
TIME_SYSTEM    = UTC
MEAN_ELEMENT_THEORY = SGP/SGP4

EPOCH          = 2026-01-13T04:10:42.162240
MEAN_MOTION    = 12.11850979
ECCENTRICITY   = .1485973
INCLINATION    = 82.6086
RA_OF_ASC_NODE = 343.5610
ARG_OF_PERICENTER = 236.5931
MEAN_ANOMALY   = 108.4310

EPHEMERIS_TYPE = 0
CLASSIFICATION_TYPE = U
NORAD_CAT_ID   = 21819
ELEMENT_SET_NO = 999
REV_AT_EPOCH   = 48996
BSTAR          = .24821E-3
MEAN_MOTION_DOT = .1251E-4
MEAN_MOTION_DDOT = 0

CCSDS_OMM_VERS = 2.0
CREATION_DATE  = 
ORIGINATOR     = 

OBJECT_NAME    = SL-8 R/B
OBJECT_ID      = 1992-008B
CENTER_NAME    = EARTH
REF_FRAME      = TEME
TIME_SYSTEM    = UTC
MEAN_ELEMENT_THEORY = SGP/SGP4

EPOCH          = 2026-01-13T01:59:30.552000
MEAN_MOTION    = 13.75965981
ECCENTRICITY   = .0033461
INCLINATION    = 82.9288
RA_OF_ASC_NODE = 309.1359
ARG_OF_PERICENTER = 291.1506
MEAN_ANOMALY   = 79.1730

EPHEMERIS_TYPE = 0
CLASSIFICATION_TYPE = U
NORAD_CAT_ID   = 21876
ELEMENT_SET_NO = 999
REV_AT_EPOCH   = 70177
BSTAR          = .55915E-4
MEAN_MOTION_DOT = .69E-6
MEAN_MOTION_DDOT = 0

CCSDS_OMM_VERS = 2.0
CREATION_DATE  = 
ORIGINATOR     = 

OBJECT_NAME    = SL-8 R/B
OBJECT_ID      = 1992-020B
CENTER_NAME    = EARTH
REF_FRAME      = TEME
TIME_SYSTEM    = UTC
MEAN_ELEMENT_THEORY = SGP/SGP4

EPOCH          = 2026-01-12T23:52:46.683264
MEAN_MOTION    = 13.75537168
ECCENTRICITY   = .003025
INCLINATION    = 82.9293
RA_OF_ASC_NODE = 195.1068
ARG_OF_PERICENTER = 93.2767
MEAN_ANOMALY   = 72.8079

EPHEMERIS_TYPE = 0
CLASSIFICATION_TYPE = U
NORAD_CAT_ID   = 21938
ELEMENT_SET_NO = 999
REV_AT_EPOCH   = 69347
BSTAR          = .15471E-3
MEAN_MOTION_DOT = .165E-5
MEAN_MOTION_DDOT = 0

CCSDS_OMM_VERS = 2.0
CREATION_DATE  = 
ORIGINATOR     = 

OBJECT_NAME    = USA 81
OBJECT_ID      = 1992-023A
CENTER_NAME    = EARTH
REF_FRAME      = TEME
TIME_SYSTEM    = UTC
MEAN_ELEMENT_THEORY = SGP/SGP4

EPOCH          = 2026-01-13T02:54:54.016992
MEAN_MOTION    = 14.32341643
ECCENTRICITY   = .0001608
INCLINATION    = 85.0099
RA_OF_ASC_NODE = 163.4784
ARG_OF_PERICENTER = 117.4038
MEAN_ANOMALY   = 242.7318

EPHEMERIS_TYPE = 0
CLASSIFICATION_TYPE = U
NORAD_CAT_ID   = 21949
ELEMENT_SET_NO = 999
REV_AT_EPOCH   = 8683
BSTAR          = .61451E-4
MEAN_MOTION_DOT = .186E-5
MEAN_MOTION_DDOT = 0

CCSDS_OMM_VERS = 2.0
CREATION_DATE  = 
ORIGINATOR     = 

OBJECT_NAME    = COSMOS 2219
OBJECT_ID      = 1992-076A
CENTER_NAME    = EARTH
REF_FRAME      = TEME
TIME_SYSTEM    = UTC
MEAN_ELEMENT_THEORY = SGP/SGP4

EPOCH          = 2026-01-13T01:29:15.358848
MEAN_MOTION    = 14.14081326
ECCENTRICITY   = .002059
INCLINATION    = 71.0618
RA_OF_ASC_NODE = 134.3578
ARG_OF_PERICENTER = 283.8716
MEAN_ANOMALY   = 76.0116

EPHEMERIS_TYPE = 0
CLASSIFICATION_TYPE = U
NORAD_CAT_ID   = 22219
ELEMENT_SET_NO = 999
REV_AT_EPOCH   = 71051
BSTAR          = .36108E-4
MEAN_MOTION_DOT = .22E-6
MEAN_MOTION_DDOT = 0

CCSDS_OMM_VERS = 2.0
CREATION_DATE  = 
ORIGINATOR     = 

OBJECT_NAME    = SL-16 R/B
OBJECT_ID      = 1992-076B
CENTER_NAME    = EARTH
REF_FRAME      = TEME
TIME_SYSTEM    = UTC
MEAN_ELEMENT_THEORY = SGP/SGP4

EPOCH          = 2026-01-13T03:23:59.381664
MEAN_MOTION    = 14.16848738
ECCENTRICITY   = .0013065
INCLINATION    = 71.0015
RA_OF_ASC_NODE = 305.3846
ARG_OF_PERICENTER = 190.1820
MEAN_ANOMALY   = 268.0191

EPHEMERIS_TYPE = 0
CLASSIFICATION_TYPE = U
NORAD_CAT_ID   = 22220
ELEMENT_SET_NO = 999
REV_AT_EPOCH   = 71396
BSTAR          = .14048E-3
MEAN_MOTION_DOT = .234E-5
MEAN_MOTION_DDOT = 0

CCSDS_OMM_VERS = 2.0
CREATION_DATE  = 
ORIGINATOR     = 

OBJECT_NAME    = COSMOS 2221
OBJECT_ID      = 1992-080A
CENTER_NAME    = EARTH
REF_FRAME      = TEME
TIME_SYSTEM    = UTC
MEAN_ELEMENT_THEORY = SGP/SGP4

EPOCH          = 2026-01-13T02:58:53.812416
MEAN_MOTION    = 14.95921353
ECCENTRICITY   = .0015358
INCLINATION    = 82.5056
RA_OF_ASC_NODE = 332.2825
ARG_OF_PERICENTER = 25.9783
MEAN_ANOMALY   = 334.2206

EPHEMERIS_TYPE = 0
CLASSIFICATION_TYPE = U
NORAD_CAT_ID   = 22236
ELEMENT_SET_NO = 999
REV_AT_EPOCH   = 77248
BSTAR          = .13284E-3
MEAN_MOTION_DOT = .1516E-4
MEAN_MOTION_DDOT = 0

CCSDS_OMM_VERS = 2.0
CREATION_DATE  = 
ORIGINATOR     = 

OBJECT_NAME    = SL-16 R/B
OBJECT_ID      = 1992-093B
CENTER_NAME    = EARTH
REF_FRAME      = TEME
TIME_SYSTEM    = UTC
MEAN_ELEMENT_THEORY = SGP/SGP4

EPOCH          = 2026-01-13T01:13:50.163456
MEAN_MOTION    = 14.15435730
ECCENTRICITY   = .0003568
INCLINATION    = 71.0219
RA_OF_ASC_NODE = 121.0682
ARG_OF_PERICENTER = 1.0785
MEAN_ANOMALY   = 359.0345

EPHEMERIS_TYPE = 0
CLASSIFICATION_TYPE = U
NORAD_CAT_ID   = 22285
ELEMENT_SET_NO = 999
REV_AT_EPOCH   = 70528
BSTAR          = .14721E-3
MEAN_MOTION_DOT = .24E-5
MEAN_MOTION_DDOT = 0

CCSDS_OMM_VERS = 2.0
CREATION_DATE  = 
ORIGINATOR     = 

OBJECT_NAME    = COSMOS 2228
OBJECT_ID      = 1992-094A
CENTER_NAME    = EARTH
REF_FRAME      = TEME
TIME_SYSTEM    = UTC
MEAN_ELEMENT_THEORY = SGP/SGP4

EPOCH          = 2026-01-13T04:14:41.765856
MEAN_MOTION    = 14.96905073
ECCENTRICITY   = .0019252
INCLINATION    = 82.5191
RA_OF_ASC_NODE = 290.4551
ARG_OF_PERICENTER = 125.1417
MEAN_ANOMALY   = 235.1613

EPHEMERIS_TYPE = 0
CLASSIFICATION_TYPE = U
NORAD_CAT_ID   = 22286
ELEMENT_SET_NO = 999
REV_AT_EPOCH   = 76775
BSTAR          = .17626E-3
MEAN_MOTION_DOT = .2056E-4
MEAN_MOTION_DDOT = 0

CCSDS_OMM_VERS = 2.0
CREATION_DATE  = 
ORIGINATOR     = 

OBJECT_NAME    = SL-16 R/B
OBJECT_ID      = 1993-016B
CENTER_NAME    = EARTH
REF_FRAME      = TEME
TIME_SYSTEM    = UTC
MEAN_ELEMENT_THEORY = SGP/SGP4

EPOCH          = 2026-01-13T03:45:47.310048
MEAN_MOTION    = 14.15294062
ECCENTRICITY   = .000857
INCLINATION    = 71.0089
RA_OF_ASC_NODE = 331.8178
ARG_OF_PERICENTER = 36.7766
MEAN_ANOMALY   = 323.3943

EPHEMERIS_TYPE = 0
CLASSIFICATION_TYPE = U
NORAD_CAT_ID   = 22566
ELEMENT_SET_NO = 999
REV_AT_EPOCH   = 69431
BSTAR          = -.92105E-4
MEAN_MOTION_DOT = -.227E-5
MEAN_MOTION_DDOT = 0

CCSDS_OMM_VERS = 2.0
CREATION_DATE  = 
ORIGINATOR     = 

OBJECT_NAME    = COSMOS 2242
OBJECT_ID      = 1993-024A
CENTER_NAME    = EARTH
REF_FRAME      = TEME
TIME_SYSTEM    = UTC
MEAN_ELEMENT_THEORY = SGP/SGP4

EPOCH          = 2026-01-13T03:15:15.021792
MEAN_MOTION    = 14.96268301
ECCENTRICITY   = .0017667
INCLINATION    = 82.5208
RA_OF_ASC_NODE = 319.8348
ARG_OF_PERICENTER = 127.8373
MEAN_ANOMALY   = 232.4451

EPHEMERIS_TYPE = 0
CLASSIFICATION_TYPE = U
NORAD_CAT_ID   = 22626
ELEMENT_SET_NO = 999
REV_AT_EPOCH   = 77208
BSTAR          = .16002E-3
MEAN_MOTION_DOT = .1838E-4
MEAN_MOTION_DDOT = 0

CCSDS_OMM_VERS = 2.0
CREATION_DATE  = 
ORIGINATOR     = 

OBJECT_NAME    = SL-16 R/B
OBJECT_ID      = 1993-059B
CENTER_NAME    = EARTH
REF_FRAME      = TEME
TIME_SYSTEM    = UTC
MEAN_ELEMENT_THEORY = SGP/SGP4

EPOCH          = 2026-01-12T17:13:17.609088
MEAN_MOTION    = 14.17219811
ECCENTRICITY   = .00192798
INCLINATION    = 70.9907
RA_OF_ASC_NODE = 129.1633
ARG_OF_PERICENTER = 292.5335
MEAN_ANOMALY   = 67.3748

EPHEMERIS_TYPE = 0
CLASSIFICATION_TYPE = U
NORAD_CAT_ID   = 22803
ELEMENT_SET_NO = 999
REV_AT_EPOCH   = 67160
BSTAR          = .12455286E-3
MEAN_MOTION_DOT = .204E-5
MEAN_MOTION_DDOT = 0

CCSDS_OMM_VERS = 2.0
CREATION_DATE  = 
ORIGINATOR     = 

OBJECT_NAME    = ARIANE 40 R/B
OBJECT_ID      = 1993-061H
CENTER_NAME    = EARTH
REF_FRAME      = TEME
TIME_SYSTEM    = UTC
MEAN_ELEMENT_THEORY = SGP/SGP4

EPOCH          = 2026-01-13T04:23:07.872864
MEAN_MOTION    = 14.32824876
ECCENTRICITY   = .0011819
INCLINATION    = 98.5029
RA_OF_ASC_NODE = 83.1338
ARG_OF_PERICENTER = 89.5843
MEAN_ANOMALY   = 270.6696

EPHEMERIS_TYPE = 0
CLASSIFICATION_TYPE = U
NORAD_CAT_ID   = 22830
ELEMENT_SET_NO = 999
REV_AT_EPOCH   = 68615
BSTAR          = .76178E-4
MEAN_MOTION_DOT = .165E-5
MEAN_MOTION_DDOT = 0

CCSDS_OMM_VERS = 2.0
CREATION_DATE  = 
ORIGINATOR     = 

OBJECT_NAME    = COSMOS 2278
OBJECT_ID      = 1994-023A
CENTER_NAME    = EARTH
REF_FRAME      = TEME
TIME_SYSTEM    = UTC
MEAN_ELEMENT_THEORY = SGP/SGP4

EPOCH          = 2026-01-13T03:35:56.436864
MEAN_MOTION    = 14.14363317
ECCENTRICITY   = .0006797
INCLINATION    = 71.0550
RA_OF_ASC_NODE = 291.2958
ARG_OF_PERICENTER = 121.1944
MEAN_ANOMALY   = 238.9846

EPHEMERIS_TYPE = 0
CLASSIFICATION_TYPE = U
NORAD_CAT_ID   = 23087
ELEMENT_SET_NO = 999
REV_AT_EPOCH   = 63695
BSTAR          = .14844E-3
MEAN_MOTION_DOT = .237E-5
MEAN_MOTION_DDOT = 0

CCSDS_OMM_VERS = 2.0
CREATION_DATE  = 
ORIGINATOR     = 

OBJECT_NAME    = SL-16 R/B
OBJECT_ID      = 1994-023B
CENTER_NAME    = EARTH
REF_FRAME      = TEME
TIME_SYSTEM    = UTC
MEAN_ELEMENT_THEORY = SGP/SGP4

EPOCH          = 2026-01-12T20:50:10.572288
MEAN_MOTION    = 14.15004561
ECCENTRICITY   = .0003144
INCLINATION    = 70.9985
RA_OF_ASC_NODE = 188.1151
ARG_OF_PERICENTER = 342.3879
MEAN_ANOMALY   = 17.7134

EPHEMERIS_TYPE = 0
CLASSIFICATION_TYPE = U
NORAD_CAT_ID   = 23088
ELEMENT_SET_NO = 999
REV_AT_EPOCH   = 63819
BSTAR          = .17782E-3
MEAN_MOTION_DOT = .297E-5
MEAN_MOTION_DDOT = 0

